NORAD_CAT_ID,OBJECT_NAME,OBJECT_TYPE,EPOCH,MEAN_MOTION,ECCENTRICITY,INCLINATION,RA_OF_ASC_NODE,ARG_OF_PERICENTER,MEAN_ANOMALY,BSTAR,MEAN_MOTION_DOT,MEAN_MOTION_DDOT,TLE_LINE0,TLE_LINE1,TLE_LINE2,SEMIMAJOR_AXIS,PERIOD,APOGEE,PERIGEE,DECAYED
51881.0,STARLINK-3504,PAYLOAD,2022-10-06 02:16:26,15.0884163,0.0001573,53.2182,213.2646,58.534,301.5806,-0.00011549,-2.126e-05,0.0,0 STARLINK-3504,1 51881U 22022AF  22279.09475209 -.00002126  00000-0 -11549-3 0  9995,2 51881  53.2182 213.2646 0001573  58.5340 301.5806 15.08841630 34502,6917.875,95.437,540.8290000000002,538.6519999999998,0.0
51881.0,STARLINK-3504,PAYLOAD,2022-10-06 05:27:13,15.08834671,0.0001486999999999,53.2169,212.667,57.4901,302.6235,-0.00013874,-2.495e-05,0.0,0 STARLINK-3504,1 51881U 22022AF  22279.22723642 -.00002495  00000-0 -13874-3 0  9999,2 51881  53.2169 212.6670 0001487  57.4901 302.6235 15.08834671 34529,6917.897,95.438,540.79,538.7330000000002,0.0
51881.0,STARLINK-3504,PAYLOAD,2022-10-07 05:18:00,15.08833493,0.000149,53.2174,208.2074,57.0724,303.0412,2.8147e-05,1.6e-06,0.0,0 STARLINK-3504,1 51881U 22022AF  22280.22083614  .00000160  00000-0  28147-4 0  9994,2 51881  53.2174 208.2074 0001490  57.0724 303.0412 15.08833493 34676,6917.9,95.438,540.7959999999998,538.735,0.0
51881.0,STARLINK-3504,PAYLOAD,2022-10-08 01:58:01,15.08823302,0.0001725,53.2176,204.3423,46.0903,314.0231,0.00013346,1.836e-05,0.0,0 STARLINK-3504,1 51881U 22022AF  22281.08196355  .00001836  00000-0  13346-3 0  9991,2 51881  53.2176 204.3423 0001725  46.0903 314.0231 15.08823302 34805,6917.931,95.439,540.99,538.6030000000002,0.0
51881.0,STARLINK-3504,PAYLOAD,2022-10-08 11:30:20,15.08826191,0.0001554,53.2174,202.5593,58.9281,301.1864,6.663699999999999e-05,7.72e-06,0.0,0 STARLINK-3504,1 51881U 22022AF  22281.47940664  .00000772  00000-0  66637-4 0  9994,2 51881  53.2174 202.5593 0001554  58.9281 301.1864 15.08826191 34866,6917.9230000000025,95.438,540.863,538.7130000000002,0.0
51881.0,STARLINK-3504,PAYLOAD,2022-10-09 03:24:12,15.08824075,0.0001663,53.2175,199.585,57.576,302.5393,4.384e-05,4.09e-06,0.0,0 STARLINK-3504,1 51881U 22022AF  22282.14181238  .00000409  00000-0  43840-4 0  9991,2 51881  53.2175 199.5850 0001663  57.5760 302.5393 15.08824075 34968,6917.929,95.439,540.945,538.644,0.0
51881.0,STARLINK-3504,PAYLOAD,2022-10-10 03:14:58,15.08834142,0.000145,53.2171,195.1249,52.51300000000001,307.5994,0.00020203,2.928e-05,0.0,0 STARLINK-3504,1 51881U 22022AF  22283.13540175  .00002928  00000-0  20203-3 0  9995,2 51881  53.2171 195.1249 0001450  52.5130 307.5994 15.08834142 35114,6917.898,95.438,540.766,538.76,0.0
51881.0,STARLINK-3504,PAYLOAD,2022-10-11 01:30:23,15.08823731,0.0001784,53.2177,190.9631,55.4571,304.6589,5.399e-05,5.71e-06,0.0,0 STARLINK-3504,1 51881U 22022AF  22284.06277499  .00000571  00000-0  53990-4 0  9996,2 51881  53.2177 190.9631 0001784  55.4571 304.6589 15.08823731 35254,6917.93,95.439,541.029,538.561,0.0
51881.0,STARLINK-3504,PAYLOAD,2022-10-12 02:56:34,15.08826577,0.000183,53.2176,186.2034,52.1388,307.9770000000001,-2.0541e-06,-3.21e-06,0.0,0 STARLINK-3504,1 51881U 22022AF  22285.12262060 -.00000321  00000-0 -20541-5 0  9994,2 51881  53.2176 186.2034 0001830  52.1388 307.9770 15.08826577 35417,6917.920999999999,95.438,541.052,538.52,0.0
51881.0,STARLINK-3504,PAYLOAD,2022-10-12 10:53:29,15.08835029,0.0001717,53.2178,184.7173,56.2767,303.8388,3.2302e-05,2.26e-06,0.0,0 STARLINK-3504,1 51881U 22022AF  22285.45381698  .00000226  00000-0  32302-4 0  9998,2 51881  53.2178 184.7173 0001717  56.2767 303.8388 15.08835029 35463,6917.896,95.438,540.948,538.573,0.0
51881.0,STARLINK-3504,PAYLOAD,2022-10-13 02:47:20,15.08836404,0.0001757,53.2175,181.7434,58.4281,301.6883,0.00019881,2.877e-05,0.0,0 STARLINK-3504,1 51881U 22022AF  22286.11620978  .00002877  00000-0  19881-3 0  9999,2 51881  53.2175 181.7434 0001757  58.4281 301.6883 15.08836404 35561,6917.891,95.438,540.972,538.5409999999998,0.0
51881.0,STARLINK-3504,PAYLOAD,2022-10-13 10:44:16,15.08831245,0.0001889,53.2178,180.2566,60.2309,299.8871,0.00013056,1.7899999999999998e-05,0.0,0 STARLINK-3504,1 51881U 22022AF  22286.44741684  .00001790  00000-0  13056-3 0  9994,2 51881  53.2178 180.2566 0001889  60.2309 299.8871 15.08831245 35611,6917.906999999997,95.438,541.0790000000002,538.465,0.0
51881.0,STARLINK-3504,PAYLOAD,2022-10-14 02:38:07,15.0883905,0.0001916999999999,53.2177,177.2839,57.7027,302.4151,0.00015286,2.145e-05,0.0,0 STARLINK-3504,1 51881U 22022AF  22287.10981267  .00002145  00000-0  15286-3 0  9993,2 51881  53.2177 177.2839 0001917  57.7027 302.4151 15.08839050 35714,6917.8830000000025,95.438,541.0740000000002,538.422,0.0
51881.0,STARLINK-3504,PAYLOAD,2022-10-14 23:18:07,15.08853721,0.0001733999999999,53.2181,173.4165,61.7094,298.4073,2.7027e-05,1.42e-06,0.0,0 STARLINK-3504,1 51881U 22022AF  22287.97092178  .00000142  00000-0  27027-4 0  9994,2 51881  53.2181 173.4165 0001734  61.7094 298.4073 15.08853721 35847,6917.8380000000025,95.437,540.903,538.504,0.0
51881.0,STARLINK-3504,PAYLOAD,2022-10-15 16:47:22,15.08844973,0.0001727,53.2182,170.1468,61.69300000000001,298.4236,2.0694e-05,4.1e-07,0.0,0 STARLINK-3504,1 51881U 22022AF  22288.69956348  .00000041  00000-0  20694-4 0  9993,2 51881  53.2182 170.1468 0001727  61.6930 298.4236 15.08844973 35950,6917.865,95.437,540.925,538.535,0.0
51881.0,STARLINK-3504,PAYLOAD,2022-10-16 02:19:41,15.08835328,0.0001623,53.2168,168.3625,54.3494,305.7649,-0.00011566,-2.128e-05,0.0,0 STARLINK-3504,1 51881U 22022AF  22289.09701314 -.00002128  00000-0 -11566-3 0  9996,2 51881  53.2168 168.3625 0001623  54.3494 305.7649 15.08835328 36019,6917.895,95.438,540.882,538.637,0.0
51881.0,STARLINK-3504,PAYLOAD,2022-10-16 08:41:15,15.08821472,0.0001779,53.2178,167.1729,56.7508,303.3655,-0.00021289,-3.673e-05,0.0,0 STARLINK-3504,1 51881U 22022AF  22289.36198684 -.00003673  00000-0 -21289-3 0  9995,2 51881  53.2178 167.1729 0001779  56.7508 303.3655 15.08821472 36056,6917.937,95.439,541.033,538.571,0.0
51881.0,STARLINK-3504,PAYLOAD,2022-10-16 19:48:57,15.08822124,0.0001544,53.2167,165.0918,58.5652,301.5491,-0.00015642,-2.775e-05,0.0,0 STARLINK-3504,1 51881U 22022AF  22289.82566788 -.00002775  00000-0 -15642-3 0  9998,2 51881  53.2167 165.0918 0001544  58.5652 301.5491 15.08822124 36122,6917.935,95.439,540.868,538.732,0.0
51881.0,STARLINK-3504,PAYLOAD,2022-10-17 02:10:30,15.08826208,0.0001636,53.2181,163.9032,63.0377,297.0782,-0.00010995,-2.037e-05,0.0,0 STARLINK-3504,1 51881U 22022AF  22290.09062657 -.00002037  00000-0 -10995-3 0  9992,2 51881  53.2181 163.9032 0001636  63.0377 297.0782 15.08826208 36162,6917.9230000000025,95.438,540.919,538.656,0.0
51881.0,STARLINK-3504,PAYLOAD,2022-10-17 08:32:02,15.08831734,0.0001636999999999,53.2179,162.7135,61.1812,298.9345,-4.1541e-05,-9.49e-06,0.0,0 STARLINK-3504,1 51881U 22022AF  22290.35558291 -.00000949  00000-0 -41541-4 0  9997,2 51881  53.2179 162.7135 0001637  61.1812 298.9345 15.08831734 36204,6917.906,95.438,540.903,538.638,0.0
51881.0,STARLINK-3504,PAYLOAD,2022-10-17 19:39:43,15.08833781,0.0001517,53.2167,160.6315,58.583,301.531,8.9533e-05,1.137e-05,0.0,0 STARLINK-3504,1 51881U 22022AF  22290.81925902  .00001137  00000-0  89533-4 0  9996,2 51881  53.2167 160.6315 0001517  58.5830 301.5310 15.08833781 36279,6917.899,95.438,540.814,538.715,0.0
51881.0,STARLINK-3504,PAYLOAD,2022-10-18 00:25:53,15.088379000000002,0.0001595999999999,53.2171,159.7394,55.6732,304.4411,0.00012345,1.677e-05,0.0,0 STARLINK-3504,1 51881U 22022AF  22291.01797682  .00001677  00000-0  12345-3 0  9996,2 51881  53.2171 159.7394 0001596  55.6732 304.4411 15.08837900 36301,6917.887,95.438,540.856,538.648,0.0
51881.0,STARLINK-3504,PAYLOAD,2022-10-18 14:44:22,15.08820119,0.0001520999999999,53.2169,157.0633,55.8954,304.2182,0.00014221,1.975e-05,0.0,0 STARLINK-3504,1 51881U 22022AF  22291.61415298  .00001975  00000-0  14221-3 0  9998,2 51881  53.2169 157.0633 0001521  55.8954 304.2182 15.08820119 36397,6917.941,95.439,540.8580000000002,538.754,0.0
51881.0,STARLINK-3504,PAYLOAD,2022-10-18 19:30:33,15.08812508,0.0001482,53.2169,156.1711,56.2026,303.9107,7.4064e-05,8.900000000000001e-06,0.0,0 STARLINK-3504,1 51881U 22022AF  22291.81288271  .00000890  00000-0  74064-4 0  9996,2 51881  53.2169 156.1711 0001482  56.2026 303.9107 15.08812508 36425,6917.964,95.439,540.855,538.804,0.0
51881.0,STARLINK-3504,PAYLOAD,2022-10-19 08:13:37,15.08836105,0.0001491,53.2168,153.7919,53.3538,306.7591,0.00012429,1.6899999999999994e-05,0.0,0 STARLINK-3504,1 51881U 22022AF  22292.34279067  .00001690  00000-0  12429-3 0  9993,2 51881  53.2168 153.7919 0001491  53.3538 306.7591 15.08836105 36509,6917.892,95.438,540.789,538.726,0.0
51881.0,STARLINK-3504,PAYLOAD,2022-10-19 17:45:55,15.08843582,0.0001554,53.2168,152.0079,52.9636,307.1498,0.00010174,1.332e-05,0.0,0 STARLINK-3504,1 51881U 22022AF  22292.74022696  .00001332  00000-0  10174-3 0  9999,2 51881  53.2168 152.0079 0001554  52.9636 307.1498 15.08843582 36566,6917.869000000002,95.437,540.809,538.659,0.0
51881.0,STARLINK-3504,PAYLOAD,2022-10-20 01:42:50,15.08851145,0.0001478,53.2167,150.5204,57.2513,302.8621,0.00010504,1.385e-05,0.0,0 STARLINK-3504,1 51881U 22022AF  22293.07142104  .00001385  00000-0  10504-3 0  9998,2 51881  53.2167 150.5204 0001478  57.2513 302.8621 15.08851145 36615,6917.846,95.437,540.734,538.689,0.0
51881.0,STARLINK-3504,PAYLOAD,2022-10-20 20:47:29,15.08820524,0.0001718,53.2169,146.9531,58.6131,301.5029,0.00034716,5.238e-05,0.0,0 STARLINK-3504,1 51881U 22022AF  22293.86631325  .00005238  00000-0  34716-3 0  9995,2 51881  53.2169 146.9531 0001718  58.6131 301.5029 15.08820524 36735,6917.94,95.439,540.993,538.616,0.0
51881.0,STARLINK-3504,PAYLOAD,2022-10-21 07:55:10,15.08849884,0.0001665999999999,53.2168,144.8715,54.5496,305.5652,0.00010457,1.377e-05,0.0,0 STARLINK-3504,1 51881U 22022AF  22294.32998050  .00001377  00000-0  10457-3 0  9994,2 51881  53.2168 144.8715 0001666  54.5496 305.5652 15.08849884 36800,6917.85,95.437,540.868,538.563,0.0
